#dP2023  8 20  0  0  0.00000000      96 __u+U ITR00 EXT  IAC
## 2276      0.00000000   900.00000000 60176 0.0000000000000
+  119   C06C07C08C09C10C11C12C13C14C16C19C20C21C22C23C24C25
+        C26C27C28C29C30C32C33C34C35C36C37C38C39C40C41C42C43
+        C44C45C46E02E03E04E05E07E08E09E10E11E12E13E14E15E18
+        E19E21E24E25E26E27E30E31E33E34E36G01G02G03G04G05G06
+        G07G08G09G10G11G12G13G14G15G16G17G18G19G20G21G22G23
+        G24G25G26G27G28G29G30G31G32J02J03J04R01R02R03R04R05
+        R07R08R09R11R12R13R14R15R16R17R18R19R20R21R22R24R25
++        11 10  9 11  7 10  9 11 10 11  9  8  8  7  8  9  8
++         8  9  9  9  9  8  9  8  8  8  8 11 10 10  8  8  8
++         9  8  9  7  9  7  8  7  8  7  8  8  9  7  8  8  8
++        10  7  8  9  8  7  8  6  7  8  7  7  7  8  7  8  7
++         7  7  7  8  7  7  8  7  8  7  7  8  7  8  7  7  8
++         7  7  6  7  8  7  8  7  9 10 11 10  7  8  7  8  8
++         8  7  8  7  7  8  9  7  9  8 10  9  9  7  8  7 10
%c M  cc GPS ccc cccc cccc cccc cccc ccccc ccccc ccccc ccccc
%c cc cc ccc ccc cccc cccc cccc cccc ccccc ccccc ccccc ccccc
%f  0.0000000  0.000000000  0.00000000000  0.000000000000000
%f  0.0000000  0.000000000  0.00000000000  0.000000000000000
%i    0    0    0    0      0      0      0      0         0
%i    0    0    0    0      0      0      0      0         0
/* IAC                                ULTRA-RAPID PREDICTION
/* S/V CLOCKS ARE ALIGNED TO GNSS TIME                      
/* G:C1WC2W R:C1PC2P E:C1XC5X C:C2IC6I J:C1CC2S             
/* PCV:IGS20_2247 OL/AL:FES2004  NONE     YN ORB:CoN CLK:CoN
*  2023 08 20 15 30  0.00000000
PC06 -18658.428484  29529.210440  23450.778165    936.406817
PC07  -6659.168641  39672.672104  13054.233774     40.374343
PC08  -2722.241072  21505.284831 -36156.729551    381.801592
PC09  -9961.215287  28474.102875  29649.219362    268.788541
PC10  -1357.743486  41829.443762   7508.800999   -151.633657
PC11 -10502.761842  21745.161918 -13946.196952    789.227434
PC12 -21978.901229  16822.568913   3676.613529    887.104871
PC13   4064.382027  25010.743477 -33491.987962    337.650933
PC14     63.021966  26385.447513  -9167.943848    260.767451
PC16 -21321.143304  29187.520690  21696.538718    -43.773763
PC19  -6612.168095 -27098.489924     64.567752   -964.435950
PC20   5427.350237 -22454.332875  15636.031010    347.121183
PC21 -15218.515366   3807.864722 -23072.450373   -952.715413
PC22 -15500.506896 -16361.141863 -16448.693556   -343.089338
PC23  23693.994016  12635.143816   7601.014302   -898.606565
PC24 -13344.527157  12130.103583  21297.796665    304.480869
PC25   8696.780244  17282.519092  20097.482078    193.519176
PC26 -25847.725986    944.190720  10509.510634   -165.950719
PC27  23096.633106 -10796.840766 -11371.448427    187.217167
PC28  16881.571303   4869.783142 -21675.747976    140.095853
PC29    119.660570 -19750.032305  19705.913659    163.464017
PC30  16649.984271 -21840.652304   4985.746286     -3.742403
PC32  15248.451530  -3763.208228  23073.171232   -531.374082
PC33   6728.822100  27092.437119   -158.758164   -942.372389
PC34 -15702.232412  22178.376925  -6331.131050    241.359575
PC35 -16936.367957  -4533.490210  21692.190131    563.800408
PC36  -7456.780147 -17471.827970 -20415.933594   -266.804322
PC37  26135.554108    291.662910  -9726.442308   -810.818780
PC38 -11935.478293  19543.384713 -35381.892037     99.418400
PC39 -25197.012805  29698.331421  15884.271004     -4.407738
PC40 -11589.212548  37069.031881  16753.337965    -33.573582
PC41  15436.281656  16964.105061  15948.393967   -886.298824
PC42  -6317.640086  21520.420541 -16585.526269   -571.862492
PC43   -899.830570  20223.500066 -19212.727154     36.110091
PC44 -22700.320599  11465.307159  11447.485654    206.006011
PC45 -24004.930956 -12350.790169  -7110.520720    -16.202611
PC46  11916.124487 -12707.895407 -21788.476447    -77.997900
PE02   6534.368869  24116.717890  15864.289016     56.788615
PE03  -2846.107821  28090.721345   8907.098991    -47.831667
PE04 -10929.432903 -16267.201373 -22178.302677   -193.653043
PE05 -15050.636903  23595.097337  -9646.789905     10.773772
PE07  18395.670209  -4892.947006  22667.160598    -68.777386
PE08  10560.346548  16631.191419  22093.875512   -133.316068
PE09 -18248.442554   4814.410305 -22807.629676   -127.191835
PE10 -26141.376848  -3432.560972  13456.402068   -557.537552
PE11 -29163.949249   3549.783332   3579.261161   2765.191643
PE12 -19390.801982  -9439.883809  20262.744614   -665.395704
PE13  29114.878474  -3114.446698  -4329.890647    -19.466936
PE14 -14670.991436  -6161.801366  18948.917842    316.762015
PE15  19042.425720   9572.437913 -20539.653286    -46.623988
PE18  13804.059528  16556.542475 -23027.374229    435.629761
PE19   4841.183830 -28444.161125  -6603.691806  -1809.204278
PE21  10301.113427 -13535.255439 -24218.706906   -547.779017
PE24 -22271.182514  -6086.054576  18527.136380   -276.348852
PE25 -10605.229277  13239.677453  24268.418750     -0.543398
PE26  21435.544269 -14139.812489  14711.768544    198.368461
PE27  22081.026214   5423.071590 -18940.091781   -129.337125
PE30  20468.127575  21268.489470  -2143.216982   -433.403600
PE31 -20737.952162 -20964.109016   2590.734191     -3.120381
PE33   2746.567318 -16547.060399  24383.506155     -1.346650
PE34  -2002.191919  16492.972483 -24509.787169    -62.575217
PE36 -22008.040947  13803.877682 -14191.326330   -103.882942
PG01   4680.559820  14109.977653 -22372.217591    167.915470
PG02  -3001.124734  15590.471593 -20760.388339   -563.357738
PG03  11278.942355  22518.274843  -8758.035074   -177.807072
PG04   1991.138788  22114.724738  14493.797953    131.394859
PG05   1805.043776 -17775.116107  19436.093603   -139.538925
PG06  25990.755319  -5491.118789   1647.556355    563.568193
PG07  20602.333736   7720.594646  15684.122423     90.397707
PG08  -5090.906352  25478.970532  -4439.319821   -138.140141
PG09   9614.797707  14915.615675  19666.197987    -81.667268
PG10 -19714.199721  -5814.769509 -16821.006392    -50.065655
PG11  18610.101032 -12380.910240  14318.840054   -329.682712
PG12  -6555.531907 -22988.967843 -11928.244720   -415.156392
PG13  13370.880603 -22726.518747   1799.499264    562.474794
PG14  20425.859926   8871.482677 -14575.977760    159.899828
PG15   1142.651300 -25913.064671  -5542.546788     69.467368
PG16  -7826.921975  13971.030928  20799.391823   -465.699428
PG17  16232.129847  -2441.339698 -20472.025755    722.970674
PG18 -22145.061253  -5806.362483  13615.241081   -389.208542
PG19  17771.576513  -9782.307145 -17170.207873    360.264007
PG20  11187.674279 -10772.282039  21572.862486    416.214682
PG21  -5172.775872  15814.811537 -19948.457493    150.412044
PG22  17687.787174   2064.740528 -19152.636440    137.997643
PG23 -20351.595833 -15786.847614  -6835.155292     57.488721
PG24   -407.686436 -16245.773790 -21334.949238   -295.470868
PG25 -17319.317759 -20329.220861   -337.025400    463.243212
PG26 -16053.279805   5244.111285  20448.509124    232.172983
PG27 -12788.205395  21925.522748   6807.499516    -25.382740
PG28 -26040.830511   5199.766423   -572.838995     74.351302
PG29  -7719.506711 -15701.124654  19903.430073   -608.112731
PG30  25740.182325    905.409616   7152.235190   -494.882300
PG31 -22757.935615  10318.212945   9416.809640   -222.142024
PG32 -16679.524150   7002.267324 -19198.167595   -543.972118
PJ02 -26535.706802  21714.787963  29656.692869     -2.813013
PJ03 -35582.207252  21084.406880  -3789.044515     -1.329381
PJ04 -18320.430671  29883.145427 -18299.065608     70.486948
PR01   3392.805349  25147.184911   2661.664019     63.881241
PR02   9396.251415  14809.141221  18531.890838    -22.508798
PR03  10583.504986  -3988.082897  22909.337035     83.661756
PR04   5845.529416 -20034.902683  14701.234869    199.463343
PR05  -1887.275804 -25407.831172  -1498.554065    117.644388
PR07 -10453.702047   4789.660324 -22728.855050     62.858828
PR08  -5668.939422  20204.854125 -14423.337738    -72.180122
PR09 -22072.642563 -12210.191880  -3469.447309    137.730956
PR11  -9943.479450   7018.016036  22429.199798   -137.872122
PR12   9339.721019  14636.003527  18713.350518     30.378503
PR13  21147.717431  13132.540083   5560.855763    -38.345194
PR14  21523.842370   3295.887361 -13286.386826     25.098446
PR15   8820.482664  -7774.860085 -22611.706122     86.855408
PR16  -9211.902013 -14396.070687 -18905.122061     17.890472
PR17  21908.077192  -9234.864996  -9170.352922     10.496874
PR18  18604.376758 -15794.811069   7502.758623     97.730720
PR19   7456.514797 -14549.327271  19571.829145   -244.196532
PR20 -12434.292881  -3951.947498  21917.097770    -98.619322
PR21 -22130.425974   9773.594049   8139.635416    -31.811920
PR22 -18483.078427  15465.048779  -8326.302450    116.239243
PR24  13303.234789   3430.221372 -21472.510576    -21.202858
PR25 -22388.623720   8137.633044   9161.198667     41.701760
EOF
